ONEWEB-0627             
1 55168U 23004AE  25306.31662470  .00000072  00000+0  15144-3 0  9995
2 55168  87.9119  50.9958 0001408  84.6766 275.4526 13.17651996137705
ONEWEB-0628             
1 55169U 23004AF  25306.52223287 -.00000102  00000+0 -31885-3 0  9994
2 55169  87.8965  35.6767 0001126  95.7013 264.4244 13.12444182138301
ONEWEB-0629             
1 55170U 23004AG  25306.36809773  .00000138  00000+0  32165-3 0  9997
2 55170  87.9124  50.9824 0001814 111.7008 248.4316 13.17647770137711
ONEWEB-0631             
1 55171U 23004AH  25306.45803588  .00000073  00000+0  15153-3 0  9992
2 55171  87.9227  20.4620 0002172  86.7663 273.3718 13.18687433139792
ONEWEB-0709             
1 55172U 23004AJ  25306.37403409 -.00000428  00000+0 -12424-2 0  9995
2 55172  87.8846  66.2557 0002550  93.8827 266.2593 13.11420225136142
ONEWEB-0710             
1 55173U 23004AK  25306.30651011  .00000123  00000+0  28414-3 0  9990
2 55173  87.9128  50.9889 0001641  96.1438 263.9881 13.17650609137703
ONEWEB-0711             
1 55174U 23004AL  25306.34521102  .00000147  00000+0  38029-3 0  9991
2 55174  87.8860  66.2323 0001176  77.2877 282.8382 13.11413216136103
ONEWEB-0713             
1 55175U 23004AM  25306.36386352 -.00000518  00000+0 -14960-2 0  9991
2 55175  87.8845  66.2324 0001407  90.7211 269.4078 13.11418017136092
ONEWEB-0715             
1 55176U 23004AN  25306.35878314 -.00000456  00000+0 -13225-2 0  9999
2 55176  87.8843  66.2333 0002215  85.7969 274.3412 13.11417243136135
ONEWEB-0716             
1 55177U 23004AP  25306.22381990  .00000313  00000+0  77338-3 0  9991
2 55177  87.9133  51.0053 0001807 108.5944 251.5384 13.17649820137694
ONEWEB-0717             
1 55178U 23004AQ  25306.35881934 -.00000121  00000+0 -34359-3 0  9994
2 55178  87.9132  50.9459 0001697  89.9258 270.2068 13.17650676137765
ONEWEB-0719             
1 55179U 23004AR  25306.52081591  .00000117  00000+0  26702-3 0  9991
2 55179  87.9135  50.8962 0001596 108.6165 251.5140 13.17651063137732
ONEWEB-0530             
1 55796U 23029A   25306.42614748 -.00000115  00000+0 -31449-3 0  9992
2 55796  87.9190 319.7102 0001422  82.3750 277.7544 13.20770408131211
ONEWEB-0534             
1 55797U 23029B   25306.48927941  .00000000  00000+0 -31548-4 0  9994
2 55797  87.9183 319.6989 0001855  96.3370 263.7974 13.20771116131229
ONEWEB-0556             
1 55798U 23029C   25306.49558742 -.00000031  00000+0 -10893-3 0  9999
2 55798  87.9188 319.6962 0001350 112.2701 247.8575 13.20770864131221
ONEWEB-0562             
1 55799U 23029D   25306.48295507 -.00000048  00000+0 -15089-3 0  9996
2 55799  87.9183 319.6827 0000907  87.1790 272.9447 13.20773037131224
ONEWEB-0563             
1 55800U 23029E   25306.47664979  .00000065  00000+0  12770-3 0  9992
2 55800  87.9191 319.7094 0001894 101.2177 258.9169 13.20770413131215
